GLOBALSTAR M063 [+]     
1 26081U 00008A   23264.54564237 -.00000065  00000+0  25100-3 0  9990
2 26081  51.9986 342.9526 0004806 173.4518 289.2538 11.86144399 82266
GLOBALSTAR M062 [-]     
1 26082U 00008B   23264.90059507 -.00000003  00000+0  68079-3 0  9994
2 26082  51.9841 160.9492 0006278 193.5729 245.7328 12.43415037417719
GLOBALSTAR M060 [-]     
1 26083U 00008C   23264.67553600 -.00000205  00000+0 -11351-2 0  9997
2 26083  52.0044  31.8530 0002559 277.8967  95.8543 12.17614162 75077
GLOBALSTAR M064 [-]     
1 26084U 00008D   23264.77434100 -.00000098  00000+0 -21122-3 0  9990
2 26084  52.0019  88.6577 0000701 302.6901  57.3863 11.88509718 91661
GLOBALSTAR M065 [+]     
1 31571U 07020A   23264.76057420 -.00000094  00000+0  53197-4 0  9996
2 31571  51.9923 357.1614 0009853 347.4724 181.2993 12.61952127753308
GLOBALSTAR M069 [+]     
1 31573U 07020C   23264.89972744 -.00000060  00000+0  24337-3 0  9993
2 31573  51.9963 312.9209 0000555 154.8860  16.4416 12.62281167754449
GLOBALSTAR M072 [+]     
1 31574U 07020D   23264.72230684 -.00000100  00000+0  18657-4 0  9990
2 31574  52.0095  49.1520 0001121  86.6960  16.8714 12.62265741752696
GLOBALSTAR M071 [P]     
1 31576U 07020F   23264.92624176 -.00000061  00000+0  23731-3 0  9991
2 31576  52.0083 317.7959 0001029 156.2157  14.6689 12.62268497415632
